{
    "links": {
        "self": "http://www.neowsapp.com/rest/v1/neo/3557758?api_key=iIulBulltgU6a56xZRHN4H3l9WmuAYTsLGpBGhQ2"
    },
    "id": "3557758",
    "neo_reference_id": "3557758",
    "name": "(2011 BV59)",
    "designation": "2011 BV59",
    "nasa_jpl_url": "http://ssd.jpl.nasa.gov/sbdb.cgi?sstr=3557758",
    "absolute_magnitude_h": 26.7,
    "estimated_diameter": {
        "kilometers": {
            "estimated_diameter_min": 0.0121494041,
            "estimated_diameter_max": 0.0271668934
        },
        "meters": {
            "estimated_diameter_min": 12.14940408,
            "estimated_diameter_max": 27.1668934089
        },
        "miles": {
            "estimated_diameter_min": 0.0075492874,
            "estimated_diameter_max": 0.0168807197
        },
        "feet": {
            "estimated_diameter_min": 39.8602508817,
            "estimated_diameter_max": 89.1302305717
        }
    },
    "is_potentially_hazardous_asteroid": false,
    "close_approach_data": [
        {
            "close_approach_date": "2011-02-11",
            "close_approach_date_full": "2011-Feb-11 20:03",
            "epoch_date_close_approach": 1297454580000,
            "relative_velocity": {
                "kilometers_per_second": "10.4166567284",
                "kilometers_per_hour": "37499.9642221853",
                "miles_per_hour": "23301.019435724"
            },
            "miss_distance": {
                "astronomical": "0.0177394121",
                "lunar": "6.9006313069",
                "kilometers": "2653778.265212227",
                "miles": "1648981.3497216526"
            },
            "orbiting_body": "Earth"
        }
    ],
    "orbital_data": {
        "orbit_id": "5",
        "orbit_determination_date": "2017-04-06 08:54:41",
        "first_observation_date": "2011-01-30",
        "last_observation_date": "2011-02-07",
        "data_arc_in_days": 8,
        "observations_used": 8,
        "orbit_uncertainty": "9",
        "minimum_orbit_intersection": ".0167648",
        "jupiter_tisserand_invariant": "3.629",
        "epoch_osculation": "2455592.5",
        "eccentricity": ".5385341892413366",
        "semi_major_axis": "2.013353767561152",
        "inclination": "4.842257383340092",
        "ascending_node_longitude": "312.6609712115604",
        "orbital_period": "1043.46662892401",
        "perihelion_distance": ".9290939286916169",
        "perihelion_argument": "226.179629858371",
        "aphelion_distance": "3.097613606430688",
        "perihelion_time": "2455631.916976401460",
        "mean_anomaly": "346.4009915495257",
        "mean_motion": ".3450038458548699",
        "equinox": "J2000",
        "orbit_class": {
            "orbit_class_type": "APO",
            "orbit_class_description": "Near-Earth asteroid orbits which cross the Earth’s orbit similar to that of 1862 Apollo",
            "orbit_class_range": "a (semi-major axis) > 1.0 AU; q (perihelion) < 1.017 AU"
        }
    },
    "is_sentry_object": false
}